NORAD_CAT_ID,OBJECT_NAME,OBJECT_TYPE,EPOCH,MEAN_MOTION,ECCENTRICITY,INCLINATION,RA_OF_ASC_NODE,ARG_OF_PERICENTER,MEAN_ANOMALY,BSTAR,MEAN_MOTION_DOT,MEAN_MOTION_DDOT,TLE_LINE0,TLE_LINE1,TLE_LINE2,SEMIMAJOR_AXIS,PERIOD,APOGEE,PERIGEE,DECAYED
51859.0,STARLINK-3560,PAYLOAD,2024-01-12 04:39:09,15.08857026,0.0001497,53.2186,304.337,85.1145,275.0018,7.1978e-05,8.58e-06,0.0,0 STARLINK-3560,1 51859U 22022H   24012.19386294  .00000858  00000-0  71978-4 0  9994,2 51859  53.2186 304.3370 0001497  85.1145 275.0018 15.08857026104279,6917.828,95.436,540.729,538.658,0.0
51859.0,STARLINK-3560,PAYLOAD,2024-01-12 18:57:39,15.08832772,0.0001484,53.2173,301.6659,70.7072,289.408,-1.1197e-05,-4.66e-06,0.0,0 STARLINK-3560,1 51859U 22022H   24012.79004412 -.00000466  00000-0 -11197-4 0  9993,2 51859  53.2173 301.6659 0001484  70.7072 289.4080 15.08832772104369,6917.902,95.438,540.794,538.741,0.0
51859.0,STARLINK-3560,PAYLOAD,2024-01-13 04:29:57,15.08844501,0.0001342,53.2173,299.8794,86.9712,273.1434,8.2282e-05,1.022e-05,0.0,0 STARLINK-3560,1 51859U 22022H   24013.18747405  .00001022  00000-0  82282-4 0  9993,2 51859  53.2173 299.8794 0001342  86.9712 273.1434 15.08844501104423,6917.867,95.437,540.66,538.803,0.0
51859.0,STARLINK-3560,PAYLOAD,2024-01-13 18:48:26,15.08843163,0.0001703,53.2165,297.2002,129.6878,230.4264,-4.693e-05,-1.035e-05,0.0,0 STARLINK-3560,1 51859U 22022H   24013.78363929 -.00001035  00000-0 -46930-4 0  9990,2 51859  53.2165 297.2002 0001703 129.6878 230.4264 15.08843163104517,6917.871,95.437,540.914,538.558,0.0
51859.0,STARLINK-3560,PAYLOAD,2024-01-14 01:09:58,15.08851174,0.0001621,53.217,296.0158,72.1518,287.965,4.6412e-05,4.51e-06,0.0,0 STARLINK-3560,1 51859U 22022H   24014.04859376  .00000451  00000-0  46412-4 0  9990,2 51859  53.2170 296.0158 0001621  72.1518 287.9650 15.08851174104555,6917.846,95.437,540.833,538.59,0.0
51859.0,STARLINK-3560,PAYLOAD,2024-01-14 18:39:13,15.08842118,0.0001787,53.2167,292.7472,54.6915,305.4244,0.0001954,2.823e-05,0.0,0 STARLINK-3560,1 51859U 22022H   24014.77723711  .00002823  00000-0  19540-3 0  9999,2 51859  53.2167 292.7472 0001787  54.6915 305.4244 15.08842118104667,6917.874,95.437,540.975,538.503,0.0
51859.0,STARLINK-3560,PAYLOAD,2024-01-14 21:49:59,15.08843287,0.000175,53.2166,292.1524,56.4231,303.6928,0.0001999,2.895e-05,0.0,0 STARLINK-3560,1 51859U 22022H   24014.90971665  .00002895  00000-0  19990-3 0  9995,2 51859  53.2166 292.1524 0001750  56.4231 303.6928 15.08843287104688,6917.87,95.437,540.946,538.525,0.0
51859.0,STARLINK-3560,PAYLOAD,2024-01-15 04:11:31,15.08858946,0.0001621,53.2161,290.9568,106.6187,253.4983,0.00030466,4.566e-05,0.0,0 STARLINK-3560,1 51859U 22022H   24015.17466789  .00004566  00000-0  30466-3 0  9999,2 51859  53.2161 290.9568 0001621 106.6187 253.4983 15.08858946104728,6917.822,95.436,540.809,538.566,0.0
51859.0,STARLINK-3560,PAYLOAD,2024-01-16 04:02:19,15.08842284,0.0001802,53.2162,286.4983,92.6595,267.4604,-1.8039e-05,-5.75e-06,0.0,0 STARLINK-3560,1 51859U 22022H   24016.16827671 -.00000575  00000-0 -18039-4 0  9991,2 51859  53.2162 286.4983 0001802  92.6595 267.4604 15.08842284104877,6917.873,95.437,540.985,538.492,0.0
51859.0,STARLINK-3560,PAYLOAD,2024-01-16 21:31:33,15.08837111,0.000152,53.2165,283.2294,74.8689,285.2471,-6.9057e-05,-1.387e-05,0.0,0 STARLINK-3560,1 51859U 22022H   24016.89692014 -.00001387  00000-0 -69057-4 0  9990,2 51859  53.2165 283.2294 0001520  74.8689 285.2471 15.08837111104988,6917.889,95.438,540.806,538.703,0.0
51859.0,STARLINK-3560,PAYLOAD,2024-01-16 23:06:56,15.08844685,0.0001695,53.2162,282.928,111.1307,248.9866,1.0152e-06,-2.72e-06,0.0,0 STARLINK-3560,1 51859U 22022H   24016.96315405 -.00000272  00000-0  10152-5 0  9998,2 51859  53.2162 282.9280 0001695 111.1307 248.9866 15.08844685104990,6917.866,95.437,540.904,538.558,0.0
51859.0,STARLINK-3560,PAYLOAD,2024-01-17 22:57:44,15.08835253,0.0001567,53.2163,278.4731,96.6705,263.4466,4.605e-05,4.45e-06,0.0,0 STARLINK-3560,1 51859U 22022H   24017.95676480  .00000445  00000-0  46050-4 0  9997,2 51859  53.2163 278.4731 0001567  96.6705 263.4466 15.08835253105146,6917.895,95.438,540.844,538.676,0.0
51859.0,STARLINK-3560,PAYLOAD,2024-01-18 21:13:08,15.08839511,0.0001374,53.2149,274.3089,72.2521,287.8621,8.7687e-05,1.108e-05,0.0,0 STARLINK-3560,1 51859U 22022H   24018.88412561  .00001108  00000-0  87687-4 0  9996,2 51859  53.2149 274.3089 0001374  72.2521 287.8621 15.08839511105282,6917.882,95.438,540.697,538.796,0.0
51859.0,STARLINK-3560,PAYLOAD,2024-01-19 01:59:17,15.08849451,0.0001454,53.2158,273.4118,90.9469,269.1689,0.00021463,3.13e-05,0.0,0 STARLINK-3560,1 51859U 22022H   24019.08283940  .00003130  00000-0  21463-3 0  9992,2 51859  53.2158 273.4118 0001454  90.9469 269.1689 15.08849451105317,6917.852,95.437,540.722,538.711,0.0
51859.0,STARLINK-3560,PAYLOAD,2024-01-19 22:39:18,15.0884308,0.0001539,53.2148,269.5484,106.8957,253.2204,0.00012631,1.723e-05,0.0,0 STARLINK-3560,1 51859U 22022H   24019.94396211  .00001723  00000-0  12631-3 0  9996,2 51859  53.2148 269.5484 0001539 106.8957 253.2204 15.08843080105444,6917.871,95.437,540.801,538.671,0.0
51859.0,STARLINK-3560,PAYLOAD,2024-01-20 00:14:41,15.08846327,0.0001538,53.216,269.2483,85.282,274.8348,0.00020542,2.983e-05,0.0,0 STARLINK-3560,1 51859U 22022H   24020.01020192  .00002983  00000-0  20542-3 0  9997,2 51859  53.2160 269.2483 0001538  85.2820 274.8348 15.08846327105458,6917.861,95.437,540.79,538.662,0.0
51859.0,STARLINK-3560,PAYLOAD,2024-01-20 22:30:05,15.08842032,0.0001379,53.2163,265.0846,104.8841,255.2304,-8.6399e-06,-4.25e-06,0.0,0 STARLINK-3560,1 51859U 22022H   24020.93756335 -.00000425  00000-0 -86399-5 0  9998,2 51859  53.2163 265.0846 0001379 104.8841 255.2304 15.08842032105591,6917.874,95.437,540.693,538.785,0.0
51859.0,STARLINK-3560,PAYLOAD,2024-01-21 01:40:51,15.08843829,0.0001421,53.2164,264.489,105.9797,254.1352,2.8031e-05,1.58e-06,0.0,0 STARLINK-3560,1 51859U 22022H   24021.07004257  .00000158  00000-0  28031-4 0  9992,2 51859  53.2164 264.4890 0001421 105.9797 254.1352 15.08843829105613,6917.869,95.437,540.717,538.751,0.0
51859.0,STARLINK-3560,PAYLOAD,2024-01-21 19:10:06,15.08842557,0.0001483,53.2166,261.2184,87.4501,272.6661,5.8978e-05,6.51e-06,0.0,0 STARLINK-3560,1 51859U 22022H   24021.79868699  .00000651  00000-0  58978-4 0  9990,2 51859  53.2166 261.2184 0001483  87.4501 272.6661 15.08842557105728,6917.873,95.437,540.763,538.712,0.0
51859.0,STARLINK-3560,PAYLOAD,2024-01-21 22:20:52,15.0884688,0.0001479,53.2148,260.625,106.2529,253.8626,8.9247e-05,1.133e-05,0.0,0 STARLINK-3560,1 51859U 22022H   24021.93116344  .00001133  00000-0  89247-4 0  9998,2 51859  53.2148 260.6250 0001479 106.2529 253.8626 15.08846880105747,6917.859,95.437,540.748,538.701,0.0
51859.0,STARLINK-3560,PAYLOAD,2024-01-22 01:31:38,15.08848653,0.0001474,53.2152,260.0302,102.9116,257.2041,0.00014127,1.962e-05,0.0,0 STARLINK-3560,1 51859U 22022H   24022.06364303  .00001962  00000-0  14127-3 0  9997,2 51859  53.2152 260.0302 0001474 102.9116 257.2041 15.08848653105765,6917.854,95.437,540.739,538.699,0.0
51859.0,STARLINK-3560,PAYLOAD,2024-01-22 22:11:39,15.08842128,0.0001438,53.216,256.1617,108.8105,251.3044,1.6939e-05,-1.8e-07,0.0,0 STARLINK-3560,1 51859U 22022H   24022.92476677 -.00000018  00000-0  16939-4 0  9996,2 51859  53.2160 256.1617 0001438 108.8105 251.3044 15.08842128105895,6917.874,95.437,540.734,538.744,0.0
51859.0,STARLINK-3560,PAYLOAD,2024-01-23 22:02:26,15.0884984,0.0001379,53.2154,251.7024,101.1419,258.9728,9.4556e-05,1.218e-05,0.0,0 STARLINK-3560,1 51859U 22022H   24023.91836174  .00001218  00000-0  94556-4 0  9991,2 51859  53.2154 251.7024 0001379 101.1419 258.9728 15.08849840106047,6917.85,95.437,540.669,538.761,0.0
51859.0,STARLINK-3560,PAYLOAD,2024-01-24 20:17:50,15.08840031,0.0001506,53.2158,247.5407,118.9434,241.1709,2.5761e-05,1.22e-06,0.0,0 STARLINK-3560,1 51859U 22022H   24024.84572653  .00000122  00000-0  25761-4 0  9998,2 51859  53.2158 247.5407 0001506 118.9434 241.1709 15.08840031106185,6917.88,95.438,540.787,538.703,0.0
51859.0,STARLINK-3560,PAYLOAD,2024-01-24 21:53:14,15.08821863,0.0001432,53.2156,247.2449,94.0002,266.1154,0.00032546,4.893e-05,0.0,0 STARLINK-3560,1 51859U 22022H   24024.91197699  .00004893  00000-0  32546-3 0  9996,2 51859  53.2156 247.2449 0001432  94.0002 266.1154 15.08821863106193,6917.936,95.439,540.791,538.81,0.0
51859.0,STARLINK-3560,PAYLOAD,2024-01-25 20:08:38,15.08843274,0.0001257,53.2159,243.0792,105.5111,254.602,-5.8484e-05,-1.219e-05,0.0,0 STARLINK-3560,1 51859U 22022H   24025.83933323 -.00001219  00000-0 -58484-4 0  9991,2 51859  53.2159 243.0792 0001257 105.5111 254.6020 15.08843274106335,6917.87,95.437,540.605,538.866,0.0
51859.0,STARLINK-3560,PAYLOAD,2024-01-25 21:44:02,15.08788221,0.0001616,53.2163,242.7815,95.0407,265.077,0.00074588,0.00011586,0.0,0 STARLINK-3560,1 51859U 22022H   24025.90558713  .00011586  00000-0  74588-3 0  9993,2 51859  53.2163 242.7815 0001616  95.0407 265.0770 15.08788221106341,6918.039,95.441,541.022,538.786,0.0
51859.0,STARLINK-3560,PAYLOAD,2024-01-26 18:24:00,15.08854944,0.0001038,53.2149,238.9204,110.8828,249.2275,0.0002401,3.537e-05,0.0,0 STARLINK-3560,1 51859U 22022H   24026.76667413  .00003537  00000-0  24010-3 0  9998,2 51859  53.2149 238.9204 0001038 110.8828 249.2275 15.08854944106479,6917.835,95.437,540.418,538.982,0.0
51859.0,STARLINK-3560,PAYLOAD,2024-01-26 21:34:48,15.08830033,0.0001404,53.2159,238.3249,78.5961,281.5189,4.7552e-05,4.69e-06,0.0,0 STARLINK-3560,1 51859U 22022H   24026.89917471  .00000469  00000-0  47552-4 0  9992,2 51859  53.2159 238.3249 0001404  78.5961 281.5189 15.08830033106496,6917.911,95.438,540.747,538.805,0.0
51859.0,STARLINK-3560,PAYLOAD,2024-01-27 21:25:36,15.08831759,0.0001336,53.2154,233.8668,78.5938,281.5204,-2.4786e-05,-6.82e-06,0.0,0 STARLINK-3560,1 51859U 22022H   24027.89278111 -.00000682  00000-0 -24786-4 0  9997,2 51859  53.2154 233.8668 0001336  78.5938 281.5204 15.08831759106645,6917.906,95.438,540.695,538.846,0.0
